[{"OBJECT_NAME":"GONETS-M 22","OBJECT_ID":"2020-091C","EPOCH":"2026-03-09T22:36:19.168992","MEAN_MOTION":12.42887547,"ECCENTRICITY":0.00227608,"INCLINATION":82.5083,"RA_OF_ASC_NODE":3.7455,"ARG_OF_PERICENTER":33.9218,"MEAN_ANOMALY":326.3312,"EPHEMERIS_TYPE":0,"CLASSIFICATION_TYPE":"U","NORAD_CAT_ID":47229,"ELEMENT_SET_NO":999,"REV_AT_EPOCH":23869,"BSTAR":1.56283e-7,"MEAN_MOTION_DOT":1.0e-7,"MEAN_MOTION_DDOT":0},{"OBJECT_NAME":"DELTA 1 DEB","OBJECT_ID":"1973-086BJ","EPOCH":"2026-03-09T11:22:14.503872","MEAN_MOTION":12.4031998,"ECCENTRICITY":0.00545309,"INCLINATION":101.817,"RA_OF_ASC_NODE":25.5673,"ARG_OF_PERICENTER":351.5402,"MEAN_ANOMALY":136.2333,"EPHEMERIS_TYPE":0,"CLASSIFICATION_TYPE":"U","NORAD_CAT_ID":7066,"ELEMENT_SET_NO":999,"REV_AT_EPOCH":36213,"BSTAR":0.0027097917,"MEAN_MOTION_DOT":3.21e-6,"MEAN_MOTION_DDOT":0}]
